H1 CPF 01  gfz 2021 10 18 00  7911 terrasarx 
H2 0702601  6201 31698    2021 10 18 00 59 42 2021 10 23 00 00 42   120 1 1  0 0 0
H9
10 0 59508  25902.000000  0    6114257.693  -2243789.178  -2254946.737
10 0 59508  26022.000000  0    5721830.874  -2290076.492  -3087027.887
10 0 59508  26142.000000  0    5229312.907  -2288716.739  -3864939.202
10 0 59508  26262.000000  0    4646227.981  -2238106.547  -4575099.809
10 0 59508  26382.000000  0    3983679.049  -2137680.529  -5205145.954
10 0 59508  26502.000000  0    3254125.793  -1987942.171  -5744139.708
10 0 59508  26622.000000  0    2471143.186  -1790472.204  -6182748.188
10 0 59508  26742.000000  0    1649166.458  -1547914.999  -6513394.970
10 0 59508  26862.000000  0     803223.477  -1263943.040  -6730380.806
10 0 59508  26982.000000  0     -51337.570   -943201.201  -6829971.241
10 0 59508  27102.000000  0    -899121.459   -591231.417  -6810453.503
10 0 59508  27222.000000  0   -1724956.647   -214379.032  -6672162.933
10 0 59508  27342.000000  0   -2514160.928    180319.076  -6417477.201
10 0 59508  27462.000000  0   -3252796.254    585261.779  -6050779.221
10 0 59508  27582.000000  0   -3927911.160    992425.544  -5578390.766
10 0 59508  27702.000000  0   -4527768.838   1393518.459  -5008474.290
10 0 59508  27822.000000  0   -5042055.458   1780145.022  -4350904.283
10 0 59508  27942.000000  0   -5462065.457   2143979.354  -3617106.471
10 0 59508  28062.000000  0   -5780858.057   2476940.993  -2819867.829
10 0 59508  28182.000000  0   -5993383.365   2771371.079  -1973119.861
10 0 59508  28302.000000  0   -6096573.470   3020204.763  -1091697.083
10 0 59508  28422.000000  0   -6089395.349   3217135.703   -191075.025
10 0 59508  28542.000000  0   -5972863.631   3356767.545    712907.513
10 0 59508  28662.000000  0   -5750010.814   3434747.925   1604335.949
10 0 59508  28782.000000  0   -5425816.092   3447882.328   2467509.086
10 0 59508  28902.000000  0   -5007095.234   3394224.102   3287223.992
10 0 59508  29022.000000  0   -4502354.728   3273138.534   4049051.120
10 0 59508  29142.000000  0   -3921612.835   3085338.944   4739593.120
10 0 59508  29262.000000  0   -3276194.141   2832894.830   5346721.072
10 0 59508  29382.000000  0   -2578502.022   2519213.151   5859786.965
10 0 59508  29502.000000  0   -1841773.221   2148991.675   6269806.678
10 0 59508  29622.000000  0   -1079821.176   1728146.025   6569611.533
10 0 59508  29742.000000  0    -306774.244   1263712.671   6753965.776
10 0 59508  29862.000000  0     463185.811    763729.439   6819652.383
10 0 59508  29982.000000  0    1216083.356    237095.977   6765525.432
10 0 59508  30102.000000  0    1938401.234   -306583.920   6592528.755
10 0 59508  30222.000000  0    2617322.534   -857176.792   6303681.339
10 0 59508  30342.000000  0    3240958.532  -1404207.464   5904028.665
10 0 59508  30462.000000  0    3798560.032  -1937057.812   5400560.300
10 0 59508  30582.000000  0    4280706.662  -2445172.985   4802092.753
10 0 59508  30702.000000  0    4679471.285  -2918271.220   4119121.406
10 0 59508  30822.000000  0    4988557.574  -3346554.512   3363641.358
10 0 59508  30942.000000  0    5203406.788  -3720913.876   2548937.797
10 0 59508  31062.000000  0    5321269.252  -4033124.136   1689350.110
10 0 59508  31182.000000  0    5341239.365  -4276024.761    800015.581
10 0 59508  31302.000000  0    5264254.089  -4443681.087   -103403.737
10 0 59508  31422.000000  0    5093054.116  -4531522.512  -1005005.056
10 0 59508  31542.000000  0    4832108.078  -4536452.830  -1888933.985
10 0 59508  31662.000000  0    4487502.061  -4456930.469  -2739671.412
10 0 59508  31782.000000  0    4066797.739  -4293016.755  -3542311.563
10 0 59508  31902.000000  0    3578863.305  -4046391.534  -4282825.914
10 0 59508  32022.000000  0    3033681.741  -3720335.973  -4948307.110
10 0 59508  32142.000000  0    2442141.224  -3319684.256  -5527188.675
10 0 59508  32262.000000  0    1815814.252  -2850746.008  -6009436.333
10 0 59508  32382.000000  0    1166730.770  -2321202.891  -6386711.688
10 0 59508  32502.000000  0     507147.184  -1739979.116  -6652507.024
10 0 59508  32622.000000  0    -150683.008  -1117088.440  -6802246.760
10 0 59508  32742.000000  0    -794732.169   -463462.387  -6833356.681
10 0 59508  32862.000000  0   -1413412.750    209237.930  -6745302.935
10 0 59508  32982.000000  0   -1995781.182    888824.659  -6539599.634
10 0 59508  33102.000000  0   -2531726.875   1562798.379  -6219785.573
10 0 59508  33222.000000  0   -3012144.634   2218572.290  -5791370.136
10 0 59508  33342.000000  0   -3429089.307   2843703.269  -5261749.176
10 0 59508  33462.000000  0   -3775910.433   3426126.920  -4640089.354
10 0 59508  33582.000000  0   -4047363.661   3954391.465  -3937179.812
10 0 59508  33702.000000  0   -4239694.571   4417885.607  -3165253.657
10 0 59508  33822.000000  0   -4350694.332   4807056.298  -2337782.787
10 0 59508  33942.000000  0   -4379726.694   5113610.640  -1469246.764
10 0 59508  34062.000000  0   -4327724.401   5330697.964   -574880.017
10 0 59508  34182.000000  0   -4197153.195   5453066.568    329600.516
10 0 59508  34302.000000  0   -3991943.832   5477188.308   1228278.077
10 0 59508  34422.000000  0   -3717394.950   5401351.176   2105325.722
10 0 59508  34542.000000  0   -3380047.198   5225712.963   2945295.671
10 0 59508  34662.000000  0   -2987531.419   4952316.469   3733399.078
10 0 59508  34782.000000  0   -2548397.804   4585067.494   4455771.050
10 0 59508  34902.000000  0   -2071929.214   4129675.635   5099717.493
10 0 59508  35022.000000  0   -1567943.672   3593559.065   5653938.262
10 0 59508  35142.000000  0   -1046590.013   2985716.085   6108722.466
10 0 59508  35262.000000  0    -518142.378   2316566.791   6456112.833
10 0 59508  35382.000000  0       7201.675   1597769.630   6690037.934
10 0 59508  35502.000000  0     519517.331    842015.392   6806413.275
10 0 59508  35622.000000  0    1009339.371     62801.772   6803207.201
10 0 59508  35742.000000  0    1467835.842   -725806.542   6680474.397
10 0 59508  35862.000000  0    1886966.786  -1509431.330   6440355.727
10 0 59508  35982.000000  0    2259625.412  -2273642.062   6087043.515
10 0 59508  36102.000000  0    2579760.034  -3004222.432   5626713.722
10 0 59508  36222.000000  0    2842474.428  -3687437.008   5067423.358
10 0 59508  36342.000000  0    3044104.147  -4310292.880   4418975.196
10 0 59508  36462.000000  0    3182268.949  -4860792.730   3692751.263
10 0 59508  36582.000000  0    3255898.658  -5328172.694   2901515.102
10 0 59508  36702.000000  0    3265232.308  -5703120.233   2059187.551
10 0 59508  36822.000000  0    3211789.212  -5977966.273   1180598.488
10 0 59508  36942.000000  0    3098313.719  -6146845.765    281220.462
10 0 59508  37062.000000  0    2928695.587  -6205824.600   -623110.122
10 0 59508  37182.000000  0    2707865.833  -6152989.093  -1516482.060
10 0 59508  37302.000000  0    2441670.701  -5988491.788  -2383197.889
10 0 59508  37422.000000  0    2136729.244  -5714557.675  -3208056.433
10 0 59508  37542.000000  0    1800275.356  -5335448.249  -3976625.127
10 0 59508  37662.000000  0    1439990.669  -4857383.467  -4675492.344
10 0 59508  37782.000000  0    1063834.001  -4288427.760  -5292496.865
10 0 59508  37902.000000  0     679869.785  -3638343.690  -5816932.342
10 0 59508  38022.000000  0     296099.110  -2918415.471  -6239723.466
10 0 59508  38142.000000  0     -79702.922  -2141247.184  -6553571.564
10 0 59508  38262.000000  0    -440140.352  -1320539.796  -6753069.428
10 0 59508  38382.000000  0    -778337.183   -470850.819  -6834785.316
10 0 59508  38502.000000  0   -1088064.267    392660.347  -6797315.291
10 0 59508  38622.000000  0   -1363851.129   1254496.202  -6641303.695
10 0 59508  38742.000000  0   -1601080.323   2099092.270  -6369433.167
10 0 59508  38862.000000  0   -1796063.307   2911091.071  -5986384.057
10 0 59508  38982.000000  0   -1946097.995   3675617.787  -5498763.461
10 0 59508  39102.000000  0   -2049505.661   4378551.633  -4915001.973
10 0 59508  39222.000000  0   -2105647.697   5006789.881  -4245219.627
10 0 59508  39342.000000  0   -2114920.815   5548498.287  -3501059.732
10 0 59508  39462.000000  0   -2078730.045   5993341.649  -2695494.239
10 0 59508  39582.000000  0   -1999440.221   6332691.312  -1842603.615
10 0 59508  39702.000000  0   -1880307.431   6559803.842   -957331.764
10 0 59508  39822.000000  0   -1725390.919   6669964.324    -55222.633
10 0 59508  39942.000000  0   -1539447.476   6660593.853    847857.133
10 0 59508  40062.000000  0   -1327810.695   6531314.211   1736008.188
10 0 59508  40182.000000  0   -1096257.398   6283963.630   2593589.106
10 0 59508  40302.000000  0    -850865.833   5922568.582   3405499.085
10 0 59508  40422.000000  0    -597869.602   5453273.555   4157449.271
10 0 59508  40542.000000  0    -343511.101   4884230.109   4836219.525
10 0 59508  40662.000000  0     -93895.921   4225442.486   5429893.094
10 0 59508  40782.000000  0     145146.233   3488582.521   5928060.809
10 0 59508  40902.000000  0     368190.489   2686775.007   6322000.830
10 0 59508  41022.000000  0     570334.268   1834356.585   6604825.013
10 0 59508  41142.000000  0     747300.768    946615.198   6771593.500
10 0 59508  41262.000000  0     895526.355     39513.647   6819394.965
10 0 59508  41382.000000  0    1012230.705   -870596.174   6747394.335
10 0 59508  41502.000000  0    1095468.505  -1767267.698   6556847.541
10 0 59508  41622.000000  0    1144161.975  -2634256.461   6251081.308
10 0 59508  41742.000000  0    1158113.679  -3455815.714   5835439.023
10 0 59508  41862.000000  0    1137998.603  -4216984.787   5317191.068
10 0 59508  41982.000000  0    1085337.770  -4903863.940   4705413.089
10 0 59508  42102.000000  0    1002452.774  -5503874.331   4010834.198
10 0 59508  42222.000000  0     892401.747  -6005998.486   3245653.213
10 0 59508  42342.000000  0     758898.209  -6400992.698   2423325.083
99
